{
  "type": "FeatureCollection",
  "name": "la_pampa",
  "features": [
    {
      "type": "Feature",
      "properties": {
        "aoi": "la_pampa",
        "display_name": "La Pampa Project Study Area",
        "role": "dataset_development"
      },
      "geometry": {
        "type": "Polygon",
        "coordinates": [[
          [-70.0100, -13.0500],
          [-69.8900, -13.0500],
          [-69.8900, -12.9500],
          [-70.0100, -12.9500],
          [-70.0100, -13.0500]
        ]]
      }
    }
  ]
}
